     2.10           N: GPS NAV DATA                         RINEX VERSION / TYPE
teqc  2013Mar15                         20160627 01:16:09UTCPGM / RUN BY / DATE
Linux 2.4.20-8|Pentium IV|gcc -static|Linux|486/DX+         COMMENT
     2.10           N: GPS NAV DATA                         COMMENT
teqc  2013Mar15                         20160626 01:00:01UTCCOMMENT
                                                            END OF HEADER
31 16  6 26 16  0  0.0 2.619372680783D-04-1.932676241267D-12 0.000000000000D+00
    1.600000000000D+01-7.562500000000D+00 4.488401245642D-09-1.949946405449D+00
   -4.824250936508D-07 8.158830110915D-03 7.642433047295D-06 5.153772106171D+03
    5.760000000000D+04-2.272427082062D-07 3.841027483126D-01-1.452863216400D-07
    9.711490748856D-01 2.428125000000D+02-3.953739367057D-01-8.079979420718D-09
   -2.275094766829D-10 0.000000000000D+00 1.903000000000D+03 0.000000000000D+00
    2.000000000000D+00 0.000000000000D+00-1.350417733192D-08 1.600000000000D+01
    5.109000000000D+04 4.000000000000D+00
18 16  6 26 16  0  0.0 5.304981023073D-04 3.865352482535D-12 0.000000000000D+00
    0.000000000000D+00-1.893750000000D+01 4.937348517527D-09 2.565110182815D+00
   -9.629875421524D-07 1.725489133969D-02 1.057051122189D-05 5.153696949005D+03
    5.760000000000D+04 1.881271600723D-07-1.776709078699D+00-1.396983861923D-07
    9.247113663973D-01 1.526250000000D+02-1.875575724526D+00-7.913901074317D-09
    1.467918287546D-10 0.000000000000D+00 1.903000000000D+03 0.000000000000D+00
    2.000000000000D+00 0.000000000000D+00-1.210719347000D-08 2.560000000000D+02
    5.130000000000D+04 4.000000000000D+00
10 16  6 26 16  0  0.0-5.362229421735D-05-7.844391802792D-12 0.000000000000D+00
    4.100000000000D+01-1.625000000000D+00 4.300536277455D-09 2.858077722501D+00
    1.862645149231D-09 1.591558451764D-03 1.058541238308D-05 5.153685638428D+03
    5.760000000000D+04 1.303851604462D-08-1.746616610964D+00-2.607703208923D-08
    9.592095977185D-01 1.749687500000D+02-2.719182486899D+00-7.888185717455D-09
    1.739358165535D-10 0.000000000000D+00 1.903000000000D+03 0.000000000000D+00
    2.000000000000D+00 0.000000000000D+00 2.328306436539D-09 4.100000000000D+01
    5.511000000000D+04 4.000000000000D+00
 7 16  6 26 15 59 44.0 4.459605552256D-04-2.501110429876D-12 0.000000000000D+00
    3.100000000000D+01-1.487500000000D+01 4.583405202938D-09-1.810100562754D+00
   -1.065433025360D-06 9.650565683842D-03 7.418915629387D-06 5.153640003204D+03
    5.758400000000D+04 1.396983861923D-07 3.746223077000D-01-3.352761268616D-08
    9.663379132929D-01 2.361562500000D+02-2.667833001702D+00-8.080693736186D-09
   -1.635782422618D-10 0.000000000000D+00 1.903000000000D+03 0.000000000000D+00
    2.000000000000D+00 0.000000000000D+00-1.117587089539D-08 3.100000000000D+01
    5.538000000000D+04 4.000000000000D+00
 8 16  6 26 16  0  0.0-4.049111157656D-05-1.364242052659D-12 0.000000000000D+00
    2.400000000000D+01 1.343750000000D+01 4.774484590733D-09 1.860192906855D+00
    7.841736078262D-07 1.702003763057D-03 4.025176167488D-06 5.153707666397D+03
    5.760000000000D+04 4.284083843231D-08 2.438737179261D+00-3.539025783539D-08
    9.636551833978D-01 2.977187500000D+02-1.054911657693D+00-8.353562245112D-09
    4.357324357192D-11 0.000000000000D+00 1.903000000000D+03 0.000000000000D+00
    2.000000000000D+00 0.000000000000D+00 4.656612873077D-09 2.400000000000D+01
    5.667000000000D+04 4.000000000000D+00
16 16  6 26 15 59 44.0-8.404720574617D-06 2.387423592154D-12 0.000000000000D+00
    7.000000000000D+00 3.981250000000D+01 3.922663394676D-09 1.852266000394D+00
    2.216547727585D-06 8.716759039089D-03 9.600073099136D-06 5.153783370972D+03
    5.758400000000D+04-1.676380634308D-07 1.470256392343D+00 1.676380634308D-07
    9.906148544906D-01 2.135937500000D+02 3.956896987956D-01-7.779966923993D-09
    3.357282701443D-11 0.000000000000D+00 1.903000000000D+03 0.000000000000D+00
    2.000000000000D+00 0.000000000000D+00-1.071020960808D-08 7.000000000000D+00
    5.736000000000D+04 4.000000000000D+00
20 16  6 26 18  0  0.0 4.207682795823D-04 2.273736754432D-12 0.000000000000D+00
    3.700000000000D+01-2.671875000000D+01 5.093426447370D-09 1.240456612260D+00
   -1.473352313042D-06 4.559533088468D-03 1.164712011814D-05 5.153762523651D+03
    6.480000000000D+04 7.450580596924D-09-1.828552607424D+00-8.195638656616D-08
    9.260068578911D-01 1.413437500000D+02 1.388766234797D+00-8.344990459492D-09
   -5.071639825584D-11 0.000000000000D+00 1.903000000000D+03 0.000000000000D+00
    2.000000000000D+00 0.000000000000D+00-8.381903171539D-09 3.700000000000D+01
    5.760000000000D+04 4.000000000000D+00
18 16  6 26 18  0  0.0 5.305260419846D-04 3.865352482535D-12 0.000000000000D+00
    1.000000000000D+00-1.690625000000D+01 4.904847163715D-09-2.667888946615D+00
   -8.121132850647D-07 1.725360075943D-02 1.116842031479D-05 5.153699287415D+03
    6.480000000000D+04 1.564621925354D-07-1.776765816514D+00-8.381903171539D-08
    9.247123816624D-01 1.420000000000D+02-1.875592670969D+00-7.890328663860D-09
    1.385772008681D-10 0.000000000000D+00 1.903000000000D+03 0.000000000000D+00
    2.000000000000D+00 0.000000000000D+00-1.210719347000D-08 2.570000000000D+02
    5.760000000000D+04 4.000000000000D+00
10 16  6 26 18  0  0.0-5.367910489440D-05-7.844391802792D-12 0.000000000000D+00
    4.200000000000D+01-1.400000000000D+01 4.291964491834D-09-2.375124274168D+00
   -6.817281246185D-07 1.593381282873D-03 1.089833676815D-05 5.153682174683D+03
    6.480000000000D+04-5.401670932770D-08-1.746672729964D+00 5.960464477539D-08
    9.592109670098D-01 1.696875000000D+02-2.718992797627D+00-7.806396596324D-09
    1.139333172086D-10 0.000000000000D+00 1.903000000000D+03 0.000000000000D+00
    2.000000000000D+00 0.000000000000D+00 2.328306436539D-09 4.200000000000D+01
    5.781000000000D+04 4.000000000000D+00
26 16  6 26 18  0  0.0-4.070247523487D-04-1.068656274583D-11 0.000000000000D+00
    4.700000000000D+01 2.125000000000D+01 4.544475009911D-09-2.682686052848D+00
    1.100823283195D-06 1.009247032925D-03 9.389594197273D-06 5.153782339096D+03
    6.480000000000D+04-4.097819328308D-08 1.390608098398D+00-3.166496753693D-08
    9.602910935557D-01 2.018125000000D+02 1.928297731169D-01-8.044977962767D-09
    7.000291590243D-11 0.000000000000D+00 1.903000000000D+03 0.000000000000D+00
    2.000000000000D+00 0.000000000000D+00 6.984919309616D-09 4.700000000000D+01
    5.802000000000D+04 4.000000000000D+00
 7 16  6 26 18  0  0.0 4.459428600967D-04-2.501110429876D-12 0.000000000000D+00
    3.200000000000D+01-1.053125000000D+01 4.551975322329D-09-7.576402364255D-01
   -4.284083843231D-07 9.650708176196D-03 7.120892405510D-06 5.153638746262D+03
    6.480000000000D+04 1.620501279831D-07 3.745641742613D-01 1.061707735062D-07
    9.663363245638D-01 2.415312500000D+02-2.667757147936D+00-8.171411800672D-09
   -2.100087477073D-10 0.000000000000D+00 1.903000000000D+03 0.000000000000D+00
    2.000000000000D+00 0.000000000000D+00-1.117587089539D-08 3.200000000000D+01
    5.808000000000D+04 4.000000000000D+00
27 16  6 26 18  0  0.0 1.079239882529D-04 4.320099833421D-12 0.000000000000D+00
    6.000000000000D+00 1.396875000000D+01 4.590905515356D-09 2.047302684912D+00
    8.158385753632D-07 3.751312964596D-03 5.213543772697D-06 5.153645671844D+03
    6.480000000000D+04-1.434236764908D-07 2.441608510018D+00 1.471489667892D-07
    9.717482188367D-01 2.859375000000D+02 3.158639499614D-01-8.243914820714D-09
    2.017941198208D-10 0.000000000000D+00 1.903000000000D+03 0.000000000000D+00
    2.000000000000D+00 0.000000000000D+00 1.396983861923D-09 6.000000000000D+00
    5.814000000000D+04 4.000000000000D+00
21 16  6 26 18  0  0.0-5.268803797662D-04-1.023181539495D-12 0.000000000000D+00
    7.800000000000D+01-7.037500000000D+01 5.079140138003D-09-1.763427211810D+00
   -3.496184945107D-06 2.335861080792D-02 5.904585123062D-06 5.153593675613D+03
    6.480000000000D+04 5.215406417847D-07-2.818555504264D+00 2.738088369370D-07
    9.368958764910D-01 2.474687500000D+02-1.780713828644D+00-8.224985460802D-09
   -2.817974522807D-10 0.000000000000D+00 1.903000000000D+03 0.000000000000D+00
    2.000000000000D+00 0.000000000000D+00-1.024454832077D-08 7.800000000000D+01
    5.814000000000D+04 4.000000000000D+00
 4 16  6 26 18  0  0.0-2.582995221019D-04-4.547473508865D-13 0.000000000000D+00
    3.000000000000D+01 1.921875000000D+01 5.261290582443D-09-3.132592554814D+00
    8.847564458847D-07 8.505583973601D-03 9.566545486450D-06 5.153656620026D+03
    6.480000000000D+04 1.862645149231D-09 1.421886028632D+00-1.695007085800D-07
    9.830980873528D-01 2.081875000000D+02 8.987016265301D-01-7.676748338811D-09
    8.571785620706D-11 0.000000000000D+00 1.903000000000D+03 0.000000000000D+00
    2.000000000000D+00 6.300000000000D+01-1.955777406693D-08 3.000000000000D+01
    5.820000000000D+04 4.000000000000D+00
16 16  6 26 17 59 44.0-8.387491106987D-06 2.387423592154D-12 0.000000000000D+00
    8.000000000000D+00 2.856250000000D+01 3.801229765049D-09 2.902227305691D+00
    1.503154635429D-06 8.715971838683D-03 9.316951036453D-06 5.153786079407D+03
    6.478400000000D+04-1.136213541031D-07 1.470200611277D+00-8.381903171539D-08
    9.906163481300D-01 2.177187500000D+02 3.958365318833D-01-7.571386807223D-09
    1.178620522847D-10 0.000000000000D+00 1.903000000000D+03 0.000000000000D+00
    2.000000000000D+00 0.000000000000D+00-1.071020960808D-08 8.000000000000D+00
    5.826000000000D+04 4.000000000000D+00
